[{"OBJECT_NAME":"OBJECT A","OBJECT_ID":"2023-085A","EPOCH":"2026-03-09T21:42:39.504096","MEAN_MOTION":15.28003151,"ECCENTRICITY":0.00073195,"INCLINATION":97.4858,"RA_OF_ASC_NODE":178.2033,"ARG_OF_PERICENTER":32.2499,"MEAN_ANOMALY":327.9186,"EPHEMERIS_TYPE":0,"CLASSIFICATION_TYPE":"U","NORAD_CAT_ID":57004,"ELEMENT_SET_NO":999,"REV_AT_EPOCH":15139,"BSTAR":0.00063583858,"MEAN_MOTION_DOT":0.0001733,"MEAN_MOTION_DDOT":0},{"OBJECT_NAME":"STARLINK-36529","OBJECT_ID":"2026-008N","EPOCH":"2026-03-09T09:16:41.737152","MEAN_MOTION":15.27606518,"ECCENTRICITY":0.00022151,"INCLINATION":42.9927,"RA_OF_ASC_NODE":207.122,"ARG_OF_PERICENTER":130.3915,"MEAN_ANOMALY":229.713,"EPHEMERIS_TYPE":0,"CLASSIFICATION_TYPE":"U","NORAD_CAT_ID":67457,"ELEMENT_SET_NO":999,"REV_AT_EPOCH":952,"BSTAR":0.0012853358,"MEAN_MOTION_DOT":0.00035307,"MEAN_MOTION_DDOT":0}]
